{
"type": "FeatureCollection",
"name": "properties",
"crs": { "type": "name", "properties": { "name": "urn:ogc:def:crs:OGC:1.3:CRS84" } },
"features": [
{ "type": "Feature", "properties": { "Property_ID": "P0001", "Vectorized": "No", "Property_Name": "Rowley lots", "Historic_Town": "Rowley", "Modern_Town": "Rowley", "Modern_State": "MA", "Loc_Certain": "Yes", "Acq_Date": 1701, "Acq_Type": "Bequest", "Sellers_Grantors": "Ezekiel Rogers", "Purchase_Price": null, "Size": null, "Sale_Date": 1732, "Sale_Price": "£2577 10s", "Purchasers": "Thomas Lambert, Nathaniel Mighill, Humphrey Hobson, David Northen, Eliott Payson, Edward Palmer, Benjamin Smith, Nathaniel Bradstreet, Thomas Lull, David Hale, David Dressor Houndsley, John Sanders, Samuel Cooper, Nathaniel Clark, Thomas Wood, Mr. Jewitt", "Student_Project": "Fall '22 Lena Tinker and Claire Pryor", "temp_field_old_source": "Populated in new source field: status=complete", "Notes": "30 lots acquired in 1701 from a clause in Rogers' 1660 will. Price listed is the sum of prices listed in account in CB3. Proceeds from sale used to acquire Rogers Farm.", "Geo_Basis_Type": "N/A", "Geo_Source_Citation": "N/A", "Geo_Source_URL": "N/A", "Geo_Student_Attribution": "N/A", "Geo_Notes": "N/A", "Sources": "S0001,S0002,S0003,S0021", "Latitude": 42.71667, "Longitude": -70.87917, "Geocode_Method": "Town centroid (Wikipedia)" }, "geometry": { "type": "Point", "coordinates": [ -70.87917, 42.71667 ] } },
{ "type": "Feature", "properties": { "Property_ID": "P0002", "Vectorized": "No", "Property_Name": "Newton (2)", "Historic_Town": null, "Modern_Town": "Newton", "Modern_State": "MA", "Loc_Certain": "No", "Acq_Date": null, "Acq_Type": null, "Sellers_Grantors": null, "Purchase_Price": null, "Size": "27 acres, 3 roods, 32 rods", "Sale_Date": null, "Sale_Price": null, "Purchasers": null, "Student_Project": null, "temp_field_old_source": "Populated in new source field: status=complete", "Notes": null, "Geo_Basis_Type": "N/A", "Geo_Source_Citation": "N/A", "Geo_Source_URL": "N/A", "Geo_Student_Attribution": "N/A", "Geo_Notes": "N/A", "Sources": "S0004", "Latitude": 42.33694, "Longitude": -71.20972, "Geocode_Method": "Town centroid (Wikipedia)" }, "geometry": { "type": "Point", "coordinates": [ -71.20972, 42.33694 ] } },
{ "type": "Feature", "properties": { "Property_ID": "P0003", "Vectorized": "No", "Property_Name": "Shawshin Farm", "Historic_Town": "Billerica", "Modern_Town": "Billerica", "Modern_State": "MA", "Loc_Certain": "Yes", "Acq_Date": 1648, "Acq_Type": "Legislative grant", "Sellers_Grantors": "MA General Court", "Purchase_Price": null, "Size": "80 acres", "Sale_Date": null, "Sale_Price": null, "Purchasers": null, "Student_Project": "Fall '22 Margaret Hylton,Fall '24 Bennett Pitcher", "temp_field_old_source": "Populated in new source field: status=complete", "Notes": null, "Geo_Basis_Type": "N/A", "Geo_Source_Citation": "N/A", "Geo_Source_URL": "N/A", "Geo_Student_Attribution": "N/A", "Geo_Notes": "N/A", "Sources": "S0005,S0006", "Latitude": 42.55833, "Longitude": -71.26944, "Geocode_Method": "Town centroid (Wikipedia)" }, "geometry": { "type": "Point", "coordinates": [ -71.26944, 42.55833 ] } },
{ "type": "Feature", "properties": { "Property_ID": "P0004", "Vectorized": "No", "Property_Name": "Shawshin Farm extension", "Historic_Town": "Billerica", "Modern_Town": "Billerica", "Modern_State": "MA", "Loc_Certain": "Yes", "Acq_Date": null, "Acq_Type": "Gift", "Sellers_Grantors": "Henry Dunster", "Purchase_Price": null, "Size": "100 acres", "Sale_Date": null, "Sale_Price": null, "Purchasers": null, "Student_Project": "Fall '22 Margaret Hylton,Fall '24 Bennett Pitcher", "temp_field_old_source": "Populated in new source field: status=complete", "Notes": null, "Geo_Basis_Type": "N/A", "Geo_Source_Citation": "N/A", "Geo_Source_URL": "N/A", "Geo_Student_Attribution": "N/A", "Geo_Notes": "N/A", "Sources": "S0007,S0008", "Latitude": 42.55833, "Longitude": -71.26944, "Geocode_Method": "Town centroid (Wikipedia)" }, "geometry": { "type": "Point", "coordinates": [ -71.26944, 42.55833 ] } },
{ "type": "Feature", "properties": { "Property_ID": "P0005", "Vectorized": "No", "Property_Name": "Framingham (Danforth Farm)", "Historic_Town": "Framingham", "Modern_Town": "Framingham", "Modern_State": "MA", "Loc_Certain": "Yes", "Acq_Date": 1699, "Acq_Type": "Bequest", "Sellers_Grantors": "Thomas Danforth", "Purchase_Price": null, "Size": null, "Sale_Date": 1767, "Sale_Price": null, "Purchasers": "Moses Haven, Daniel Haven, Nathaniel Biglow", "Student_Project": null, "temp_field_old_source": "Populated in new source field: status=complete", "Notes": "3 lots", "Geo_Basis_Type": " 2 sold 1767", "Geo_Source_Citation": "N/A", "Geo_Source_URL": "N/A", "Geo_Student_Attribution": "N/A", "Geo_Notes": "N/A", "Sources": "N/A", "Latitude": 42.27917, "Longitude": -71.41667, "Geocode_Method": "Town centroid (Wikipedia)" }, "geometry": { "type": "Point", "coordinates": [ -71.41667, 42.27917 ] } },
{ "type": "Feature", "properties": { "Property_ID": "P0006", "Vectorized": "No", "Property_Name": "Hopkinton", "Historic_Town": "Hopkinton", "Modern_Town": "Hopkinton", "Modern_State": "MA", "Loc_Certain": "Yes", "Acq_Date": null, "Acq_Type": "Bequest", "Sellers_Grantors": "Samuel Brown", "Purchase_Price": null, "Size": "200 acres", "Sale_Date": null, "Sale_Price": null, "Purchasers": null, "Student_Project": null, "temp_field_old_source": "Populated in new source field: status=complete", "Notes": "200 acre lot in Hopkinton mentioned in records concerning Danforth Farm", "Geo_Basis_Type": "N/A", "Geo_Source_Citation": "N/A", "Geo_Source_URL": "N/A", "Geo_Student_Attribution": "N/A", "Geo_Notes": "N/A", "Sources": "S0010,S0011", "Latitude": 42.22861, "Longitude": -71.52306, "Geocode_Method": "Town centroid (Wikipedia)" }, "geometry": { "type": "Point", "coordinates": [ -71.52306, 42.22861 ] } },
{ "type": "Feature", "properties": { "Property_ID": "P0007", "Vectorized": "No", "Property_Name": "Lunenberg", "Historic_Town": "Lunenberg", "Modern_Town": "Lunenberg", "Modern_State": "MA", "Loc_Certain": "Yes", "Acq_Date": 1719, "Acq_Type": "Legislative grant", "Sellers_Grantors": "MA General Court", "Purchase_Price": null, "Size": "250 acres", "Sale_Date": null, "Sale_Price": null, "Purchasers": null, "Student_Project": "Fall '22 Kabl Wilkerson", "temp_field_old_source": "Populated in new source field: status=complete", "Notes": "Awarded at the same time as 250 acres in Townsend", "Geo_Basis_Type": "N/A", "Geo_Source_Citation": "N/A", "Geo_Source_URL": "N/A", "Geo_Student_Attribution": "N/A", "Geo_Notes": "N/A", "Sources": "S0012,S0013", "Latitude": 42.59444, "Longitude": -71.725, "Geocode_Method": "Town centroid (Wikipedia)" }, "geometry": { "type": "Point", "coordinates": [ -71.725, 42.59444 ] } },
{ "type": "Feature", "properties": { "Property_ID": "P0008", "Vectorized": "No", "Property_Name": "Townsend (2)", "Historic_Town": "Townsend", "Modern_Town": "Brookline", "Modern_State": "NH", "Loc_Certain": "Yes", "Acq_Date": null, "Acq_Type": null, "Sellers_Grantors": null, "Purchase_Price": null, "Size": "67 acres", "Sale_Date": null, "Sale_Price": null, "Purchasers": null, "Student_Project": "Fall '22 Kabl Wilkerson", "temp_field_old_source": "Populated in new source field: status=complete", "Notes": "Harvard acquired an additional Townsend lot ca. 1737.", "Geo_Basis_Type": "N/A", "Geo_Source_Citation": "N/A", "Geo_Source_URL": "N/A", "Geo_Student_Attribution": "N/A", "Geo_Notes": "N/A", "Sources": "S0014", "Latitude": 42.75583, "Longitude": -71.67111, "Geocode_Method": "Town centroid (Wikipedia)" }, "geometry": { "type": "Point", "coordinates": [ -71.67111, 42.75583 ] } },
{ "type": "Feature", "properties": { "Property_ID": "P0009", "Vectorized": "No", "Property_Name": "Narragansett Farm", "Historic_Town": null, "Modern_Town": "North Kingstown", "Modern_State": "RI", "Loc_Certain": "Yes", "Acq_Date": 1696, "Acq_Type": "Gift", "Sellers_Grantors": "Samuel Sewall", "Purchase_Price": null, "Size": "500 acres", "Sale_Date": 1827, "Sale_Price": "$4,862.73", "Purchasers": "Constant Sweet, James Greene, Jonathan Reynolds, Clarke Lawson, Henry Vaughan, Daniel G. Champlin, George F. Church, R.F. Noyes, James A. Smith, Joseph P. Sanford and Henry Vaughanb, Jonathan Slocum", "Student_Project": "Fall '23 Ailie Johnson", "temp_field_old_source": "Populated in new source field: status=complete", "Notes": "Apparently in North Kingstown and Exeter, RI. Auctioned in 16 lots. Income from property to support scholarships for local and Indian students. ", "Geo_Basis_Type": "N/A", "Geo_Source_Citation": "N/A", "Geo_Source_URL": "N/A", "Geo_Student_Attribution": "N/A", "Geo_Notes": "N/A", "Sources": "S0015,S0016", "Latitude": 41.58056, "Longitude": -71.45389, "Geocode_Method": "Town centroid (Wikipedia)" }, "geometry": { "type": "Point", "coordinates": [ -71.45389, 41.58056 ] } },
{ "type": "Feature", "properties": { "Property_ID": "P0010", "Vectorized": "No", "Property_Name": "Coggan's Marsh", "Historic_Town": "Chelsea", "Modern_Town": "Chelsea", "Modern_State": "MA", "Loc_Certain": "Yes", "Acq_Date": 1652, "Acq_Type": "Gift", "Sellers_Grantors": "John Coggan", "Purchase_Price": null, "Size": "53 acres 153 poles", "Sale_Date": 1831, "Sale_Price": null, "Purchasers": "Edward H. Robbins", "Student_Project": null, "temp_field_old_source": "Populated in new source field: status=complete", "Notes": "Located in Rumney Marsh", "Geo_Basis_Type": "N/A", "Geo_Source_Citation": "N/A", "Geo_Source_URL": "N/A", "Geo_Student_Attribution": "N/A", "Geo_Notes": "N/A", "Sources": "S0017,S0018,S0019,S0020", "Latitude": 42.39167, "Longitude": -71.03333, "Geocode_Method": "Town centroid (Wikipedia)" }, "geometry": { "type": "Point", "coordinates": [ -71.03333, 42.39167 ] } },
{ "type": "Feature", "properties": { "Property_ID": "P0011", "Vectorized": "No", "Property_Name": "Stoughton's Marsh", "Historic_Town": "Dorchester", "Modern_Town": "Dorchester", "Modern_State": "MA", "Loc_Certain": "Yes", "Acq_Date": 1702, "Acq_Type": "Bequest", "Sellers_Grantors": "William Stoughton", "Purchase_Price": null, "Size": "5 acres 1 rood 8 rods", "Sale_Date": null, "Sale_Price": null, "Purchasers": null, "Student_Project": "Fall '22 Kari Traylor", "temp_field_old_source": "Populated in new source field: status=complete", "Notes": "Income from Stoughton's Marsh and Pasture to be used to finance scholarships for local (Dorchester or Milton) or Indian students", "Geo_Basis_Type": "N/A", "Geo_Source_Citation": "N/A", "Geo_Source_URL": "N/A", "Geo_Student_Attribution": "N/A", "Geo_Notes": "N/A", "Sources": "S0022,S0023", "Latitude": 42.317, "Longitude": -71.05, "Geocode_Method": "Town centroid (Wikipedia)" }, "geometry": { "type": "Point", "coordinates": [ -71.05, 42.317 ] } },
{ "type": "Feature", "properties": { "Property_ID": "P0012", "Vectorized": "No", "Property_Name": "Stoughton's Pasture", "Historic_Town": "Dorchester", "Modern_Town": "Dorchester", "Modern_State": "MA", "Loc_Certain": "Yes", "Acq_Date": 1702, "Acq_Type": "Bequest", "Sellers_Grantors": "William Stoughton", "Purchase_Price": null, "Size": "22 acres 3 rood 22 rods", "Sale_Date": null, "Sale_Price": null, "Purchasers": null, "Student_Project": "Fall '22 Kari Traylor", "temp_field_old_source": "Populated in new source field: status=complete", "Notes": "Income from Stoughton's Marsh and Pasture to be used to finance scholarships for local (Dorchester or Milton) or Indian students", "Geo_Basis_Type": "N/A", "Geo_Source_Citation": "N/A", "Geo_Source_URL": "N/A", "Geo_Student_Attribution": "N/A", "Geo_Notes": "N/A", "Sources": "S0024,S0025", "Latitude": 42.317, "Longitude": -71.05, "Geocode_Method": "Town centroid (Wikipedia)" }, "geometry": { "type": "Point", "coordinates": [ -71.05, 42.317 ] } },
{ "type": "Feature", "properties": { "Property_ID": "P0013", "Vectorized": "No", "Property_Name": "Israel Stoughton's legacy", "Historic_Town": "Dorchester", "Modern_Town": "Dorchester", "Modern_State": "MA", "Loc_Certain": "Yes", "Acq_Date": 1647, "Acq_Type": "Gift", "Sellers_Grantors": "Israel Stoughton", "Purchase_Price": null, "Size": "300 acres", "Sale_Date": null, "Sale_Price": null, "Purchasers": null, "Student_Project": null, "temp_field_old_source": "Populated in new source field: status=complete", "Notes": "200 acres of land on the northeast of the Neponset near Mother's brook, to be joined with 100 acres on the other side of the river. ", "Geo_Basis_Type": "N/A", "Geo_Source_Citation": "N/A", "Geo_Source_URL": "N/A", "Geo_Student_Attribution": "N/A", "Geo_Notes": "N/A", "Sources": "S0026", "Latitude": 42.317, "Longitude": -71.05, "Geocode_Method": "Town centroid (Wikipedia)" }, "geometry": { "type": "Point", "coordinates": [ -71.05, 42.317 ] } },
{ "type": "Feature", "properties": { "Property_ID": "P0014", "Vectorized": "No", "Property_Name": "Granby", "Historic_Town": "Granby", "Modern_Town": "Granby", "Modern_State": "MA", "Loc_Certain": "Yes", "Acq_Date": 1781, "Acq_Type": "Gift", "Sellers_Grantors": "Isaac Royall", "Purchase_Price": null, "Size": "884 acres 36 poles", "Sale_Date": 1796, "Sale_Price": "$2,000", "Purchasers": "Joseph Eastman", "Student_Project": "Summer '26 Daniel Bittner", "temp_field_old_source": "Populated in new source field: status=complete", "Notes": "Given with Royalston lands for the establishment of the Royall Professorship of Law.", "Geo_Basis_Type": "N/A", "Geo_Source_Citation": "N/A", "Geo_Source_URL": "N/A", "Geo_Student_Attribution": "N/A", "Geo_Notes": "N/A", "Sources": "S0027", "Latitude": 42.25639, "Longitude": -72.51667, "Geocode_Method": "Town centroid (Wikipedia)" }, "geometry": { "type": "Point", "coordinates": [ -72.51667, 42.25639 ] } },
{ "type": "Feature", "properties": { "Property_ID": "P0015", "Vectorized": "No", "Property_Name": "Plainfield", "Historic_Town": "Plainfield, CT", "Modern_Town": "Plainfield", "Modern_State": "CT", "Loc_Certain": "No", "Acq_Date": null, "Acq_Type": null, "Sellers_Grantors": null, "Purchase_Price": null, "Size": null, "Sale_Date": null, "Sale_Price": null, "Purchasers": null, "Student_Project": null, "temp_field_old_source": "Populated in new source field: status=complete", "Notes": "A document concerning Harvard's Plainfield property has been erroneously filed in RLP XXI, \"Cambridge Lands\"", "Geo_Basis_Type": "N/A", "Geo_Source_Citation": "N/A", "Geo_Source_URL": "N/A", "Geo_Student_Attribution": "N/A", "Geo_Notes": "N/A", "Sources": "S0028", "Latitude": 41.7, "Longitude": -71.9, "Geocode_Method": "Town centroid (Wikipedia)" }, "geometry": { "type": "Point", "coordinates": [ -71.9, 41.7 ] } },
{ "type": "Feature", "properties": { "Property_ID": "P0016", "Vectorized": "No", "Property_Name": "Andover Farm", "Historic_Town": null, "Modern_Town": "Andover", "Modern_State": "MA", "Loc_Certain": "No", "Acq_Date": 1646, "Acq_Type": "Gift", "Sellers_Grantors": "Nathaniel Ward", "Purchase_Price": null, "Size": "600 acres", "Sale_Date": null, "Sale_Price": null, "Purchasers": null, "Student_Project": null, "temp_field_old_source": "Populated in new source field: status=complete", "Notes": "600 acre farm near Andover by the Merrimack River", "Geo_Basis_Type": "N/A", "Geo_Source_Citation": "N/A", "Geo_Source_URL": "N/A", "Geo_Student_Attribution": "N/A", "Geo_Notes": "N/A", "Sources": "S0029,S0030,S0031", "Latitude": 42.6575, "Longitude": -71.14083, "Geocode_Method": "Town centroid (Wikipedia)" }, "geometry": { "type": "Point", "coordinates": [ -71.14083, 42.6575 ] } },
{ "type": "Feature", "properties": { "Property_ID": "P0017", "Vectorized": "No", "Property_Name": "Robert Cook grant", "Historic_Town": null, "Modern_Town": null, "Modern_State": null, "Loc_Certain": null, "Acq_Date": null, "Acq_Type": null, "Sellers_Grantors": "Robert Cook", "Purchase_Price": null, "Size": "800 acres", "Sale_Date": null, "Sale_Price": null, "Purchasers": null, "Student_Project": null, "temp_field_old_source": "Populated in new source field: status=complete", "Notes": "His colony grant of 1640", "Geo_Basis_Type": "N/A", "Geo_Source_Citation": "N/A", "Geo_Source_URL": "N/A", "Geo_Student_Attribution": "N/A", "Geo_Notes": "N/A", "Sources": "S0032,S0033", "Latitude": null, "Longitude": null, "Geocode_Method": null }, "geometry": null },
{ "type": "Feature", "properties": { "Property_ID": "P0018", "Vectorized": "No", "Property_Name": "Colony's 800 acres", "Historic_Town": null, "Modern_Town": null, "Modern_State": null, "Loc_Certain": null, "Acq_Date": null, "Acq_Type": "Legislative grant", "Sellers_Grantors": "MA General Court", "Purchase_Price": null, "Size": "800 acres", "Sale_Date": 1652, "Sale_Price": null, "Purchasers": null, "Student_Project": null, "temp_field_old_source": "Populated in new source field: status=complete", "Notes": null, "Geo_Basis_Type": "N/A", "Geo_Source_Citation": "N/A", "Geo_Source_URL": "N/A", "Geo_Student_Attribution": "N/A", "Geo_Notes": "N/A", "Sources": "S0034", "Latitude": null, "Longitude": null, "Geocode_Method": null }, "geometry": null },
{ "type": "Feature", "properties": { "Property_ID": "P0019", "Vectorized": "No", "Property_Name": "Edward Jackson property", "Historic_Town": "Billerica", "Modern_Town": "Billerica", "Modern_State": "MA", "Loc_Certain": "No", "Acq_Date": null, "Acq_Type": "Bequest", "Sellers_Grantors": "Edward Jackson", "Purchase_Price": null, "Size": "400 acres", "Sale_Date": 1681, "Sale_Price": null, "Purchasers": null, "Student_Project": null, "temp_field_old_source": "Populated in new source field: status=complete", "Notes": null, "Geo_Basis_Type": "N/A", "Geo_Source_Citation": "N/A", "Geo_Source_URL": "N/A", "Geo_Student_Attribution": "N/A", "Geo_Notes": "N/A", "Sources": "S0035", "Latitude": 42.55833, "Longitude": -71.26944, "Geocode_Method": "Town centroid (Wikipedia)" }, "geometry": { "type": "Point", "coordinates": [ -71.26944, 42.55833 ] } },
{ "type": "Feature", "properties": { "Property_ID": "P0020", "Vectorized": "No", "Property_Name": "Atkinson Property", "Historic_Town": null, "Modern_Town": "Boston", "Modern_State": "MA", "Loc_Certain": "No", "Acq_Date": 1671, "Acq_Type": "Gift", "Sellers_Grantors": "Theodor Atkinson", "Purchase_Price": null, "Size": null, "Sale_Date": null, "Sale_Price": null, "Purchasers": null, "Student_Project": null, "temp_field_old_source": "Populated in new source field: status=complete", "Notes": "About 20 rods of land south of Boston", "Geo_Basis_Type": "N/A", "Geo_Source_Citation": "N/A", "Geo_Source_URL": "N/A", "Geo_Student_Attribution": "N/A", "Geo_Notes": "N/A", "Sources": "S0036,S0037,S0038", "Latitude": 42.36028, "Longitude": -71.05778, "Geocode_Method": "Town centroid (Wikipedia)" }, "geometry": { "type": "Point", "coordinates": [ -71.05778, 42.36028 ] } },
{ "type": "Feature", "properties": { "Property_ID": "P0021", "Vectorized": "No", "Property_Name": "Mill Bridge Property", "Historic_Town": "Boston", "Modern_Town": "Boston", "Modern_State": "MA", "Loc_Certain": "Yes", "Acq_Date": 1694, "Acq_Type": "Bequest", "Sellers_Grantors": "John Richards", "Purchase_Price": null, "Size": null, "Sale_Date": null, "Sale_Price": null, "Purchasers": null, "Student_Project": null, "temp_field_old_source": "Populated in new source field: status=complete", "Notes": "Property located near the Mill Bridge", "Geo_Basis_Type": "N/A", "Geo_Source_Citation": "N/A", "Geo_Source_URL": "N/A", "Geo_Student_Attribution": "N/A", "Geo_Notes": "N/A", "Sources": "S0039", "Latitude": 42.36028, "Longitude": -71.05778, "Geocode_Method": "Town centroid (Wikipedia)" }, "geometry": { "type": "Point", "coordinates": [ -71.05778, 42.36028 ] } },
{ "type": "Feature", "properties": { "Property_ID": "P0022", "Vectorized": "No", "Property_Name": "Roxbury Gate Property", "Historic_Town": "Boston", "Modern_Town": "Boston", "Modern_State": "MA", "Loc_Certain": "Yes", "Acq_Date": 1694, "Acq_Type": "Bequest", "Sellers_Grantors": "John Richards", "Purchase_Price": null, "Size": null, "Sale_Date": null, "Sale_Price": null, "Purchasers": null, "Student_Project": null, "temp_field_old_source": "Populated in new source field: status=complete", "Notes": "Property located near Roxbury Gate in Boston Neck", "Geo_Basis_Type": "N/A", "Geo_Source_Citation": "N/A", "Geo_Source_URL": "N/A", "Geo_Student_Attribution": "N/A", "Geo_Notes": "N/A", "Sources": "S0040", "Latitude": 42.36028, "Longitude": -71.05778, "Geocode_Method": "Town centroid (Wikipedia)" }, "geometry": { "type": "Point", "coordinates": [ -71.05778, 42.36028 ] } },
{ "type": "Feature", "properties": { "Property_ID": "P0023", "Vectorized": "No", "Property_Name": "Major Sedgwick's shops", "Historic_Town": "Boston", "Modern_Town": "Boston", "Modern_State": "MA", "Loc_Certain": "No", "Acq_Date": null, "Acq_Type": null, "Sellers_Grantors": "Roger Sedgwick", "Purchase_Price": null, "Size": null, "Sale_Date": null, "Sale_Price": null, "Purchasers": null, "Student_Project": null, "temp_field_old_source": "Populated in new source field: status=complete", "Notes": "2 small shops in Boston granted to Harvard College by Major Sedgwick by 1646. \"By William Phillips house\" (the \"Ship Tavern\")", "Geo_Basis_Type": "N/A", "Geo_Source_Citation": "N/A", "Geo_Source_URL": "N/A", "Geo_Student_Attribution": "N/A", "Geo_Notes": "N/A", "Sources": "S0041,S0042,S0043", "Latitude": 42.36028, "Longitude": -71.05778, "Geocode_Method": "Town centroid (Wikipedia)" }, "geometry": { "type": "Point", "coordinates": [ -71.05778, 42.36028 ] } },
{ "type": "Feature", "properties": { "Property_ID": "P0024", "Vectorized": "No", "Property_Name": "Robert Keyne house", "Historic_Town": "Boston", "Modern_Town": "Boston", "Modern_State": "MA", "Loc_Certain": "Yes", "Acq_Date": null, "Acq_Type": null, "Sellers_Grantors": "Robert Keyne", "Purchase_Price": null, "Size": null, "Sale_Date": 1696, "Sale_Price": null, "Purchasers": null, "Student_Project": null, "temp_field_old_source": "Populated in new source field: status=complete", "Notes": "One half of a house \"near to the old meeting house\"", "Geo_Basis_Type": "N/A", "Geo_Source_Citation": "N/A", "Geo_Source_URL": "N/A", "Geo_Student_Attribution": "N/A", "Geo_Notes": "N/A", "Sources": "S0044", "Latitude": 42.36028, "Longitude": -71.05778, "Geocode_Method": "Town centroid (Wikipedia)" }, "geometry": { "type": "Point", "coordinates": [ -71.05778, 42.36028 ] } },
{ "type": "Feature", "properties": { "Property_ID": "P0025", "Vectorized": "No", "Property_Name": "Brattle Square buildings", "Historic_Town": "Boston", "Modern_Town": "Boston", "Modern_State": "MA", "Loc_Certain": "Yes", "Acq_Date": null, "Acq_Type": null, "Sellers_Grantors": null, "Purchase_Price": null, "Size": null, "Sale_Date": null, "Sale_Price": null, "Purchasers": null, "Student_Project": null, "temp_field_old_source": "Populated in new source field: status=complete", "Notes": "\"A range of stone buildings\" situated on Brattle Square or Scollay Square, at the site of the present-day Government Center and City Hall Plaza, described in a document permitting the city to use the college's land for street construction, March 1825", "Geo_Basis_Type": "N/A", "Geo_Source_Citation": "N/A", "Geo_Source_URL": "N/A", "Geo_Student_Attribution": "N/A", "Geo_Notes": "N/A", "Sources": "S0045", "Latitude": 42.36028, "Longitude": -71.05778, "Geocode_Method": "Town centroid (Wikipedia)" }, "geometry": { "type": "Point", "coordinates": [ -71.05778, 42.36028 ] } },
{ "type": "Feature", "properties": { "Property_ID": "P0026", "Vectorized": "No", "Property_Name": "Mr Greenleaf's house", "Historic_Town": null, "Modern_Town": "Boston", "Modern_State": "MA", "Loc_Certain": "No", "Acq_Date": null, "Acq_Type": null, "Sellers_Grantors": null, "Purchase_Price": null, "Size": null, "Sale_Date": null, "Sale_Price": null, "Purchasers": null, "Student_Project": null, "temp_field_old_source": "Populated in new source field: status=complete", "Notes": "Mr Greenliff's house", "Geo_Basis_Type": "N/A", "Geo_Source_Citation": "N/A", "Geo_Source_URL": "N/A", "Geo_Student_Attribution": "N/A", "Geo_Notes": "N/A", "Sources": "S0046", "Latitude": 42.36028, "Longitude": -71.05778, "Geocode_Method": "Town centroid (Wikipedia)" }, "geometry": { "type": "Point", "coordinates": [ -71.05778, 42.36028 ] } },
{ "type": "Feature", "properties": { "Property_ID": "P0027", "Vectorized": "No", "Property_Name": "Cambridge town lands (1)", "Historic_Town": "Cambridge", "Modern_Town": "Cambridge", "Modern_State": "MA", "Loc_Certain": "No", "Acq_Date": 1662, "Acq_Type": "Town grant", "Sellers_Grantors": "Town of Cambridge", "Purchase_Price": null, "Size": "3 acres", "Sale_Date": null, "Sale_Price": null, "Purchasers": null, "Student_Project": null, "temp_field_old_source": "Populated in new source field: status=complete", "Notes": "7th division, 3 acres on the south side of the Charles River", "Geo_Basis_Type": "N/A", "Geo_Source_Citation": "N/A", "Geo_Source_URL": "N/A", "Geo_Student_Attribution": "N/A", "Geo_Notes": "N/A", "Sources": "S0047,S0048", "Latitude": 42.37361, "Longitude": -71.11056, "Geocode_Method": "Town centroid (Wikipedia)" }, "geometry": { "type": "Point", "coordinates": [ -71.11056, 42.37361 ] } },
{ "type": "Feature", "properties": { "Property_ID": "P0028", "Vectorized": "No", "Property_Name": "Cambridge town lands (2)", "Historic_Town": "Cambridge", "Modern_Town": "Cambridge", "Modern_State": "MA", "Loc_Certain": "No", "Acq_Date": 1665, "Acq_Type": "Town grant", "Sellers_Grantors": "Town of Cambridge", "Purchase_Price": null, "Size": "30 acres", "Sale_Date": null, "Sale_Price": null, "Purchasers": null, "Student_Project": null, "temp_field_old_source": "Populated in new source field: status=complete", "Notes": "Lot 33, 30 acres and 3 commons", "Geo_Basis_Type": "N/A", "Geo_Source_Citation": "N/A", "Geo_Source_URL": "N/A", "Geo_Student_Attribution": "N/A", "Geo_Notes": "N/A", "Sources": "S0049,S0050", "Latitude": 42.37361, "Longitude": -71.11056, "Geocode_Method": "Town centroid (Wikipedia)" }, "geometry": { "type": "Point", "coordinates": [ -71.11056, 42.37361 ] } },
{ "type": "Feature", "properties": { "Property_ID": "P0029", "Vectorized": "No", "Property_Name": "Cambridge town lands (3)", "Historic_Town": "Cambridge", "Modern_Town": "Cambridge", "Modern_State": "MA", "Loc_Certain": "No", "Acq_Date": 1682, "Acq_Type": "Town grant", "Sellers_Grantors": "Town of Cambridge", "Purchase_Price": null, "Size": "20 acres", "Sale_Date": null, "Sale_Price": null, "Purchasers": null, "Student_Project": null, "temp_field_old_source": "Populated in new source field: status=complete", "Notes": "Lot 147, 20 acres and 3 commons beyond the eighth mile line. (Is this the 20 acres in Lexington granted by Cambridge and sold 1721 to to Gregory Stone per CB3.265?)", "Geo_Basis_Type": "N/A", "Geo_Source_Citation": "N/A", "Geo_Source_URL": "N/A", "Geo_Student_Attribution": "N/A", "Geo_Notes": "N/A", "Sources": "S0051", "Latitude": 42.37361, "Longitude": -71.11056, "Geocode_Method": "Town centroid (Wikipedia)" }, "geometry": { "type": "Point", "coordinates": [ -71.11056, 42.37361 ] } }
]
}
